MALLIGYONG-1            
1 58400U 23179A   24214.95911182  .00008679  00000+0  38606-3 0  9993
2 58400  97.3980 101.0331 0003158  67.6413 292.5157 15.21724475 38682
